OBJECT_NAME,OBJECT_ID,EPOCH,MEAN_MOTION,ECCENTRICITY,INCLINATION,RA_OF_ASC_NODE,ARG_OF_PERICENTER,MEAN_ANOMALY,EPHEMERIS_TYPE,CLASSIFICATION_TYPE,NORAD_CAT_ID,ELEMENT_SET_NO,REV_AT_EPOCH,BSTAR,MEAN_MOTION_DOT,MEAN_MOTION_DDOT
INTELSAT 21 (IS-21),2012-045A,2026-06-19T01:43:17.198976,1.00272683,.00013932,0.0182,12.4024,86.2934,136.4237,0,U,38749,999,5054,0,-.291E-5,0
INTELSAT 23 (IS-23),2012-057A,2026-06-19T05:29:59.907840,1.00267375,.00001343,0.0099,325.5761,86.5042,244.8525,0,U,38867,999,4997,0,-.291E-5,0
FM-6,2013-058A,2026-06-19T03:46:10.655328,1.00253413,.00026488,0.0346,50.7410,119.5495,37.3371,0,U,39360,999,4609,0,0,0
INTELSAT 30 (IS-30),2014-062A,2026-06-19T05:50:50.775072,1.00270952,.00012405,0.0281,53.7801,330.6226,235.7245,0,U,40271,999,681,0,-.157E-5,0
DIRECTV 14,2014-078B,2026-06-18T15:46:13.892736,1.00271140,.00005065,0.0104,8.1118,318.6715,77.4309,0,U,40333,999,4205,0,-.132E-5,0
DIRECTV 15,2015-026A,2026-06-19T00:24:40.582368,1.00275519,.00002003,0.0150,57.2665,252.5514,220.7096,0,U,40663,999,4048,0,-.109E-5,0
SKY MEXICO-1,2015-026B,2026-06-19T06:16:30.931968,1.00272314,.00020928,0.0149,53.8986,51.0677,177.8468,0,U,40664,999,4047,0,-.241E-5,0
INTELSAT 34 (IS-34),2015-039A,2026-06-18T22:55:32.513088,1.00269371,.00003866,0.0090,11.9069,322.0452,221.6210,0,U,40874,999,3965,0,-.292E-5,0
INTELSAT 31 (IS-31),2016-035A,2026-06-19T02:09:30.712320,1.00264216,.00011277,0.0171,269.3791,318.6423,336.6183,0,U,41581,999,3670,0,-.156E-5,0
INTELSAT 36 (IS-36),2016-053A,2026-06-18T23:56:21.800256,1.00271257,.00021211,0.0124,11.1204,322.4188,1.2761,0,U,41747,999,3597,0,-.31E-6,0
INTELSAT 32E (IS-32E),2017-007B,2026-06-19T04:06:58.326624,1.00270576,.00006553,0.0180,10.1464,310.2644,325.5432,0,U,41945,999,3424,0,-.275E-5,0
INTELSAT 35E (IS-35E),2017-041A,2026-06-19T04:09:28.088064,1.00270762,.00020387,0.0194,13.3558,75.0828,206.8380,0,U,42818,999,3283,0,0,0
INTELSAT 37E (IS-37E),2017-059A,2026-06-19T05:56:51.160704,1.00271081,.00025623,0.0180,12.9149,100.3269,225.4551,0,U,42950,999,3208,0,-.147E-5,0
AZERSPACE 2 (IS-38),2018-074A,2026-06-18T21:41:31.668000,1.00273868,.0001499,0.0173,14.6973,84.9449,177.9809,0,U,43632,999,2846,0,.13E-5,0
HORIZONS-3E,2018-074B,2026-06-18T15:26:12.274368,1.00271097,.00007576,0.0047,132.2714,140.4157,34.7443,0,U,43633,999,2835,0,-.37E-6,0
AT&T T-16,2019-034A,2026-06-18T20:59:35.484000,1.00271203,.000081,0.0226,66.9403,239.0528,175.1501,0,U,44333,999,2565,0,-.122E-5,0
INTELSAT 39 (IS-39),2019-049B,2026-06-19T04:36:55.456128,1.00268615,.00010568,0.0190,337.6290,354.8240,66.1468,0,U,44476,999,2514,0,.28E-6,0
GALAXY 30 (G-30),2020-056C,2026-06-19T05:40:41.472768,1.00271369,.00022888,0.0206,10.8347,76.7843,140.0223,0,U,46114,999,2131,0,0,0
GALAXY 33 (G-33),2022-128A,2026-06-19T07:48:57.167424,1.00270175,.00016941,0.0194,48.2442,35.5287,168.0130,0,U,54026,999,1376,0,.73E-6,0
GALAXY 34 (G-34),2022-128B,2026-06-18T15:26:01.500288,1.00274211,.0001513,0.0104,30.3042,67.6466,271.4326,0,U,54027,999,1392,0,.52E-6,0
GALAXY 31 (G-31),2022-153A,2026-06-19T05:27:27.257184,1.00271779,.00011163,0.0206,80.7226,358.7754,148.8057,0,U,54243,999,715,0,.7E-7,0
GALAXY 32 (G-32),2022-153B,2026-06-18T22:45:24.970752,1.00271680,.00020816,0.0125,22.5955,12.0145,122.9243,0,U,54244,999,1316,0,-.181E-5,0
GALAXY 35 (G-35),2022-170A,2026-06-19T05:35:19.002912,1.00271935,.00018342,0.0127,63.0227,21.5282,173.6254,0,U,54741,999,1291,0,-.168E-5,0
GALAXY 36 (G-36),2022-170B,2026-06-19T05:36:33.883200,1.00272268,.00025607,0.0035,352.5196,91.1528,178.9266,0,U,54742,999,1279,0,-.191E-5,0
GALAXY 37 (G-37),2023-112A,2026-06-19T07:47:50.634240,1.00271185,.0002005,0.0039,36.6791,49.2765,171.5512,0,U,57493,999,1056,0,.42E-6,0
